0 THORAD AGENA D DEB
1  5150U 70025JT  19218.42286016  .00000179  00000-0  18769-3 0  9996
2  5150  99.5630 205.6049 0093493 311.8257  47.4942 13.86905170462042
0 THORAD AGENA D DEB
1  5151U 70025JU  19218.24105187  .00000070  00000-0  14962-3 0  9997
2  5151  99.9954 322.0056 0001899  29.6953  23.8482 13.63060507942247
0 THORAD AGENA D DEB
1  5151U 70025JU  19217.74811411 +.00000057 +00000-0 +13244-3 0  9992
2  5151 099.9954 321.5001 0001933 031.1338 124.7930 13.63060291941962
0 THORAD AGENA D DEB
1  5153U 70025JW  19218.58503190  .00000043  00000-0  12819-3 0  9991
2  5153 100.0961 260.0296 0033441   2.6582 151.0191 13.55936155429507
0 THORAD AGENA D DEB
1  5154U 70025JX  19217.16609887 +.00001371 +00000-0 +36706-3 0  9991
2  5154 099.8386 110.0501 0005480 146.6193 213.5343 14.50231887504688
0 THORAD AGENA D DEB
1  5154U 70025JX  19218.13200069  .00001511  00000-0  40304-3 0  9993
2  5154  99.8386 111.1769 0005609 143.0919 217.0657 14.50235651505025
0 COSMOS 397 DEB
1  5155U 71015AJ  19218.86458388  .00000457  00000-0  11859-3 0  9994
2  5155  65.3440  29.8719 0442850   5.7959 354.8005 14.14315123389419
0 COSMOS 397 DEB
1  5155U 71015AJ  19217.94534052 +.00000452 +00000-0 +11758-3 0  9998
2  5155 065.3438 032.3532 0442790 006.1919 354.4381 14.14314093389803
0 COSMOS 397 DEB
1  5156U 71015AK  19217.93091294 +.00000296 +00000-0 +12432-3 0  9990
2  5156 065.6890 139.4234 0688494 072.4438 295.0591 13.53717510324751
0 THORAD AGENA D DEB
1  5165U 70025JY  19217.73887858 +.00002765 +00000-0 +25003-3 0  9998
2  5165 099.6981 132.4617 0010827 163.3664 196.7908 14.96582651543168
0 THORAD AGENA D DEB
1  5165U 70025JY  19218.54117460  .00003637  00000-0  32639-3 0  9995
2  5165  99.6976 133.4546 0010879 160.8184 199.3443 14.96588828543626
0 COSMOS 407
1  5174U 71035A   19218.63068954 -.00000007  00000-0  69619-5 0  9999
2  5174  74.0451  11.7313 0017580  86.8771 273.4391 14.33265307521601
0 COSMOS 407
1  5174U 71035A   19217.86290312 -.00000005 +00000-0 +76674-5 0  9995
2  5174 074.0449 013.1339 0017580 088.5476 271.7689 14.33265322521285
0 SL-8 R/B
1  5175U 71035B   19217.42055668 +.00000093 +00000-0 +39429-4 0  9993
2  5175 074.0466 215.2858 0031022 232.7581 127.0743 14.37945979526694
0 SL-8 R/B
1  5175U 71035B   19218.46413358  .00000111  00000-0  45281-4 0  9996
2  5175  74.0467 213.3653 0030998 230.6410 129.1997 14.37946309527093
0 COSMOS 409
1  5180U 71038A   19217.95227626 -.00000181 +00000-0 -41554-3 0  9996
2  5180 074.0003 188.6168 0023126 199.6505 214.1332 13.17770102321963
0 SL-8 R/B
1  5181U 71038B   19217.94583897 -.00000059 +00000-0 -96664-4 0  9998
2  5181 073.9983 061.9625 0055047 065.4858 038.4593 13.20664406326681
0 THORAD AGENA D DEB
1  5183U 70025JZ  19217.75375418 +.00000129 +00000-0 +18309-3 0  9997
2  5183 100.0198 290.7697 0033011 242.5262 238.3005 13.75805719459543
0 THORAD AGENA D DEB
1  5183U 70025JZ  19218.48019459  .00000123  00000-0  17723-3 0  9991
2  5183 100.0198 291.5330 0033063 240.6348 236.3161 13.75805954459987
0 THORAD AGENA D DEB
1  5185U 70025KB  19218.30741403  .00000486  00000-0  44619-3 0  9991
2  5185  99.6168 155.6588 0073804  62.8721  88.8858 13.86936628453566
0 THORAD AGENA D DEB
1  5185U 70025KB  19217.78285241 +.00000517 +00000-0 +47203-3 0  9992
2  5185 099.6168 155.1195 0073765 064.2076 349.8205 13.86936271453289
0 COSMOS 374 DEB *
1  5189U 70089BA  19217.17206734 +.00000447 +00000-0 +72664-4 0  9991
2  5189 062.5888 279.4425 0235047 255.3774 102.1142 14.68900463924242
0 COSMOS 374 DEB *
1  5189U 70089BA  19218.53357483  .00000638  00000-0  93807-4 0  9994
2  5189  62.5887 275.0244 0235004 255.7097 101.7786 14.68903582925118
0 COSMOS 397 DEB
1  5192U 71015AP  19218.43163412  .00001090  00000-0  19864-3 0  9997
2  5192  65.5589  77.1285 0366745 196.9300 161.9289 14.35282362406299
0 COSMOS 397 DEB
1  5192U 71015AP  19217.94387544 +.00001039 +00000-0 +19040-3 0  9995
2  5192 065.5589 078.4785 0366764 197.1701 161.6714 14.35281121405973
0 COSMOS 397 DEB
1  5197U 71015AT  19217.24597916 +.00000213 +00000-0 +11289-3 0  9999
2  5197 065.5352 241.5814 0763002 312.8692 041.0626 13.34210460298107
0 COSMOS 397 DEB
1  5197U 71015AT  19218.22041186  .00000298  00000-0  14353-3 0  9999
2  5197  65.5350 239.2846 0763057 312.4761  41.4146 13.34211696298458
0 THORAD AGENA D DEB
1  5203U 70025KE  19218.88547584  .00000176  00000-0  50038-3 0  9997
2  5203  99.8407  17.1271 0225482 154.5087   4.9646 13.15706559353676
0 THORAD AGENA D DEB
1  5203U 70025KE  19217.89671682 +.00000162 +00000-0 +46989-3 0  9999
2  5203 099.8405 016.2069 0225465 156.7858 001.6894 13.15706053353117
0 COSMOS 411
1  5210U 71041A   19217.85889626 -.00000020 +00000-0 -16576-4 0  9996
2  5210 074.0145 112.0377 0112582 258.9903 167.9266 12.64945350227802
0 COSMOS 411
1  5210U 71041A   19218.19795316 -.00000022  00000-0 -23087-4 0  9993
2  5210  74.0145 111.5739 0112581 258.4688 271.9229 12.64945336228026
0 COSMOS 412
1  5211U 71041B   19217.97115529 -.00000001 +00000-0 +10881-3 0  9994
2  5211 074.0161 135.8450 0035329 187.7325 247.9439 12.39845407422808
0 COSMOS 414
1  5213U 71041D   19217.88752279 -.00000013 +00000-0 +20803-4 0  9994
2  5213 074.0170 006.6107 0042916 253.1249 220.5733 12.51103915203566
0 COSMOS 415
1  5214U 71041E   19217.92300813 -.00000002 +00000-0 +94625-4 0  9994
2  5214 074.0149 165.9964 0031224 101.0754 259.3810 12.47454732197014
0 COSMOS 416
1  5215U 71041F   19217.94484639 -.00000018 +00000-0 -87803-5 0  9995
2  5215 074.0135 060.9814 0077709 255.3609 211.9949 12.58023414215578
0 COSMOS 416
1  5215U 71041F   19218.11037802 -.00000018  00000-0 -50801-5 0  9999
2  5215  74.0134  60.7579 0077708 255.1132 241.6640 12.58023420215880
0 COSMOS 417
1  5216U 71041G   19217.58001392 -.00000016 +00000-0 +98108-6 0  9995
2  5216 074.0141 270.8442 0094883 084.1592 066.2634 12.61404536221566
0 COSMOS 418
1  5217U 71041H   19217.94145179 -.00000020 +00000-0 -23100-4 0  9992
2  5217 074.0123 215.2106 0059270 075.2863 300.5320 12.54536076209503
0 COSMOS 418
1  5217U 71041H   19218.52835565 -.00000015  00000-0  40488-5 0  9994
2  5217  74.0123 214.4233 0059266  74.3838  71.1971 12.54536069209800
0 THORAD AGENA D DEB
1  5220U 70025KG  19218.24257112  .00000577  00000-0  16575-2 0  9993
2  5220  99.8601 333.5818 0398846 199.7230 225.8576 12.89930014308029
0 THORAD AGENA D DEB
1  5220U 70025KG  19217.86781368 +.00000571 +00000-0 +16417-2 0  9994
2  5220 099.8601 333.2474 0398803 200.5511 285.5849 12.89929580307975
0 SL-8 DEB
1  5225U 70102D   19217.69078564 +.00000075 +00000-0 +80048-4 0  9995
2  5225 074.0230 078.3214 0017253 227.3942 190.8331 13.90122376458448
0 SL-8 R/B
1  5239U 71046B   19217.56782507 -.00000031 +00000-0 -87060-5 0  9999
2  5239 074.0227 282.7957 0010406 043.3413 057.9231 13.73823000416366
0 COSMOS 374 DEB
1  5240U 70089BF  19217.43175400 -.00000008 +00000-0 +62045-4 0  9999
2  5240 062.8624 243.7200 0881035 357.7436 001.9690 12.77535226230627
0 COSMOS 397 DEB
1  5272U 71015BB  19217.88436211 -.00000041 +00000-0 +20176-4 0  9999
2  5272 065.5594 113.6373 0782240 260.0146 091.1822 13.33745054310842
0 COSMOS 397 DEB
1  5277U 71015BE  19218.50305860 -.00000060  00000-0  11151-4 0  9993
2  5277  65.7355  41.3243 0931306 274.8969  74.6495 12.98232963936332
0 COSMOS 397 DEB
1  5280U 71015BF  19218.46014964  .00000073  00000-0  58470-4 0  9992
2  5280  65.6621  18.6310 0783614 302.4387  50.3178 13.32883176308577
0 SL-8 DEB
1  5300U 71035C   19217.52642951 +.00000667 +00000-0 +58890-4 0  9991
2  5300 074.0184 263.1965 0006890 294.7613 065.2856 14.98737091560249
0 SL-8 DEB
1  5300U 71035C   19218.19394097  .00000754  00000-0  66060-4 0  9995
2  5300  74.0182 261.8413 0006907 293.5238  66.5222 14.98738616560468
0 SL-8 DEB
1  5301U 71035D   19217.03860690 +.00000211 +00000-0 +43221-4 0  9997
2  5301 074.0304 076.0469 0011422 178.2331 181.8881 14.67124087542574
0 COSMOS 252 DEB *
1  5322U 68097CJ  19216.98385107 -.00000099 +00000-0 -18820-6 0  9997
2  5322 061.2858 217.1272 0731402 343.6308 014.2143 13.12164990383926
0 COSMOS 252 DEB *
1  5322U 68097CJ  19217.97450442 -.00000060  00000-0  27630-4 0  9996
2  5322  61.2857 214.5239 0731495 344.0491  13.8517 13.12165172384057
0 COSMOS 374 DEB
1  5337U 70089BS  19217.88802817 +.00000510 +00000-0 +38058-3 0  9997
2  5337 062.9353 099.9267 0866935 110.2575 259.3709 12.92940187825887
0 THORAD AGENA D DEB
1  5349U 70025KN  19217.92921372 +.00000563 +00000-0 +41414-3 0  9991
2  5349 099.8492 206.8838 0069072 152.1544 208.3341 13.99272940397258
0 THORAD AGENA D DEB
1  5349U 70025KN  19217.92921372  .00000563  00000-0  41414-3 0  9991
2  5349  99.8492 206.8838 0069072 152.1544 208.3341 13.99272940397449
0 SL-8 DEB
1  5358U 70086D   19217.91286730 +.00000912 +00000-0 +69864-4 0  9997
2  5358 074.0229 298.8926 0002996 002.9072 357.2134 15.03601759634743
0 THORAD AGENA D DEB
1  5359U 70025KQ  19217.44886705 +.00000152 +00000-0 +22806-3 0  9997
2  5359 100.0811 037.2076 0003089 319.5401 070.4349 13.70157570449586
0 THORAD AGENA D DEB
1  5359U 70025KQ  19218.47073940  .00000156  00000-0  23242-3 0  9999
2  5359 100.0812  38.2773 0003064 316.4817  71.3571 13.70157959449715
0 THOR DELTA 1 DEB
1  5360U 71024C   19218.86592682  .00000031  00000-0  10619-3 0  9999
2  5360  88.3007 185.8400 0041478 194.9493 192.9894 12.67860908237316
0 THOR DELTA 1 DEB
1  5360U 71024C   19217.92483998 +.00000029 +00000-0 +95074-4 0  9990
2  5360 088.3006 185.9791 0041417 197.3222 217.5541 12.67860888236925
0 OV1-5 DEB
1  5361U 66025G   19217.27198853 +.00000865 +00000-0 +24049-3 0  9998
2  5361 144.6214 022.2382 0032878 254.6379 105.0675 14.24240529008850
